SL-16 R/B               
1 23705U 95058B   26194.49131733  .00000074  00000+0  61931-4 0  9991
2 23705  71.0211 276.1329 0014608 284.9495  75.0010 14.15508252585656
SL-16 R/B               
1 24298U 96051B   26194.44699160  .00000149  00000+0  10712-3 0  9994
2 24298  70.7647 269.0766 0017671 300.3444  59.5928 14.12455771539400
ORBVIEW 2 (SEASTAR)     
1 24883U 97037A   26194.43585220  .00000106  00000+0  53035-4 0  9998
2 24883  98.8711   2.1855 0003128  64.3180 295.8327 14.35566309526515
SL-16 R/B               
1 25400U 98043G   26194.46330749 -.00000007  00000+0  16118-4 0  9991
2 25400  98.8378 148.8506 0010132  16.3331 343.8173 14.26072537456913
SL-16 R/B               
1 25407U 98045B   26194.44052064 -.00000244  00000+0 -99168-4 0  9999
2 25407  71.0113 277.1187 0008292 209.2016 150.8644 14.16205910444905
ISS (ZARYA)             
1 25544U 98067A   26194.31484285  .00004029  00000+0  81266-4 0  9998
2 25544  51.6305 170.7871 0006687 290.3592  69.6678 15.48997295575806
CZ-4B R/B               
1 25732U 99025C   26194.09277617  .00000024  00000+0  32307-4 0  9999
2 25732  98.6473 235.2777 0036744 345.8565  40.8493 14.18287488405942
OKEAN-O                 
1 25860U 99039A   26193.76014792  .00000283  00000+0  43799-4 0  9996
2 25860  97.9303 252.2628 0000927  82.8184 277.3133 14.80495702452894
SL-16 R/B               
1 25861U 99039B   26194.09581435  .00000241  00000+0  37296-4 0  9996
2 25861  97.9824 252.8832 0014166 205.4976 154.5539 14.81869576455432
DELTA 2 R/B             
1 25876U 99041E   26194.29371297  .00001342  00000+0  25403-3 0  9999
2 25876  51.7612 159.4948 0501341 359.1428   0.8599 14.12079571380771
HELIOS 1B               
1 25977U 99064A   26194.33632429  .00000697  00000+0  82212-4 0  9992
2 25977  98.1588 100.2307 0002052  56.2386 303.9025 14.88072672703943
TERRA                   
1 25994U 99068A   26194.45088281  .00000199  00000+0  49458-4 0  9991
2 25994  97.9443 242.9540 0003341 126.3051 291.3655 14.61122896413449
SL-16 R/B               
1 26070U 00006B   26194.41784887 -.00000201  00000+0 -77539-4 0  9999
2 26070  71.0002 193.4702 0017125 342.4252  17.6277 14.15838417366356
TITAN 4B R/B            
1 26474U 00047B   26194.48489322  .00001326  00000+0  87218-4 0  9997
2 26474  67.9872  46.5428 0045870 260.4595  99.1369 15.10328439411906
ENVISAT                 
1 27386U 02009A   26194.47103338  .00000019  00000+0  20054-4 0  9992
2 27386  98.3846 145.2052 0001341  83.8219  24.8831 14.39070531277268
IDEFIX & ARIANE 42P R/B 
1 27422U 02021B   26194.41833192  .00000088  00000+0  49999-4 0  9994
2 27422  98.5943 131.6177 0011786 171.6602 188.4779 14.31093299262004
AQUA                    
1 27424U 02022A   26194.47787366  .00000374  00000+0  84157-4 0  9997
2 27424  98.4294 164.2891 0000886 109.8746 359.2727 14.62195610287114
CZ-4B R/B               
1 27432U 02024C   26193.98472679  .00000010  00000+0  28071-4 0  9991
2 27432  98.8688 246.6356 0050575  28.2172  21.4970 14.14567965246950
MIDORI II (ADEOS-II)    
1 27597U 02056A   26194.45853505  .00000099  00000+0  56521-4 0  9990
2 27597  98.7894 153.9439 0001552  42.9556 317.1746 14.29362567228269
H-2A R/B                
1 27601U 02056E   26194.46971866  .00000116  00000+0  54823-4 0  9991
2 27601  98.3328 150.1882 0070800 146.0159 326.1306 14.33833338232138
CZ-4B R/B               
1 28059U 03049C   26194.49893084  .00000141  00000+0  44003-4 0  9997
2 28059  98.6908 194.3943 0047537 206.4811 153.3956 14.55115425204895
CZ-2C R/B               
1 28222U 04012C   26194.16142575  .00100274  00000+0  42892-3 0  9997
2 28222  97.7067 272.9570 0011468 197.3679 162.7199 15.84778211224005
SL-16 R/B               
1 28353U 04021B   26194.46613042  .00000027  00000+0  38955-4 0  9998
2 28353  71.0026 328.5367 0006371 226.4042 133.6552 14.14616257140625
CZ-4B R/B               
1 28415U 04035C   26194.08342749  .00004684  00000+0  15716-3 0  9995
2 28415  97.3359 226.8692 0029114 240.5375 119.2961 15.30974783199089
CZ-2C R/B               
1 28480U 04046B   26194.34516983  .00000049  00000+0  32865-4 0  9997
2 28480  98.1919 101.4880 0140021 142.8352 218.2623 14.27032755126421
ARIANE 5 R/B            
1 28499U 04049H   26194.46770794  .00000277  00000+0  37476-4 0  9991
2 28499  98.2739   7.7397 0082713 303.9645  55.3727 14.85477864164460
CZ-2D R/B               
1 28738U 05024B   26194.01573357  .00054658  00000+0  40848-3 0  9996
2 28738  97.3471 214.7884 0002036 197.1497 162.9698 15.72551891159396
ALOS (DAICHI)           
1 28931U 06002A   26194.43148900  .00000487  00000+0  89263-4 0  9992
2 28931  98.1337 149.9197 0000812  95.8759 264.2539 14.70099841 91958
H-2A R/B                
1 28932U 06002B   26194.48328119  .00004546  00000+0  21757-3 0  9993
2 28932  98.2585 352.7015 0050700 171.8030 188.4042 15.18428233113513
RESURS-DK 1             
1 29228U 06021A   26194.47575610  .00000974  00000+0  60636-4 0  9993
2 29228  69.9309 271.4979 0006997 272.9641  87.0724 15.13315670106559
