OBJECT_NAME,OBJECT_ID,EPOCH,MEAN_MOTION,ECCENTRICITY,INCLINATION,RA_OF_ASC_NODE,ARG_OF_PERICENTER,MEAN_ANOMALY,EPHEMERIS_TYPE,CLASSIFICATION_TYPE,NORAD_CAT_ID,ELEMENT_SET_NO,REV_AT_EPOCH,BSTAR,MEAN_MOTION_DOT,MEAN_MOTION_DDOT
SL-16 R/B,1995-058B,2026-07-13T11:47:29.817312,14.15508252,.0014608,71.0211,276.1329,284.9495,75.0010,0,U,23705,999,58565,.61931E-4,.74E-6,0
SL-16 R/B,1996-051B,2026-07-13T10:43:40.074240,14.12455771,.0017671,70.7647,269.0766,300.3444,59.5928,0,U,24298,999,53940,.10712E-3,.149E-5,0
ORBVIEW 2 (SEASTAR),1997-037A,2026-07-13T10:27:37.630080,14.35566309,.0003128,98.8711,2.1855,64.3180,295.8327,0,U,24883,999,52651,.53035E-4,.106E-5,0
SL-16 R/B,1998-043G,2026-07-13T11:07:09.767136,14.26072537,.0010132,98.8378,148.8506,16.3331,343.8173,0,U,25400,999,45691,.16118E-4,-.7E-7,0
SL-16 R/B,1998-045B,2026-07-13T10:34:20.983296,14.16205910,.0008292,71.0113,277.1187,209.2016,150.8644,0,U,25407,999,44490,-.99168E-4,-.244E-5,0
ISS (ZARYA),1998-067A,2026-07-13T07:33:22.422240,15.48997295,.0006687,51.6305,170.7871,290.3592,69.6678,0,U,25544,999,57580,.81266E-4,.4029E-4,0
CZ-4B R/B,1999-025C,2026-07-13T02:13:35.861088,14.18287488,.0036744,98.6473,235.2777,345.8565,40.8493,0,U,25732,999,40594,.32307441E-4,.24E-6,0
OKEAN-O,1999-039A,2026-07-12T18:14:36.780288,14.80495702,.00009276,97.9303,252.2628,82.8184,277.3133,0,U,25860,999,45289,.43798611E-4,.283E-5,0
SL-16 R/B,1999-039B,2026-07-13T02:17:58.359840,14.81869576,.00141661,97.9824,252.8832,205.4976,154.5539,0,U,25861,999,45543,.37296366E-4,.241E-5,0
DELTA 2 R/B,1999-041E,2026-07-13T07:02:56.800608,14.12079571,.0501341,51.7612,159.4948,359.1428,0.8599,0,U,25876,999,38077,.25403E-3,.1342E-4,0
HELIOS 1B,1999-064A,2026-07-13T08:04:18.418656,14.88072672,.0002052,98.1588,100.2307,56.2386,303.9025,0,U,25977,999,70394,.82212E-4,.697E-5,0
TERRA,1999-068A,2026-07-13T10:49:16.274784,14.61122896,.0003341,97.9443,242.9540,126.3051,291.3655,0,U,25994,999,41344,.49458E-4,.199E-5,0
SL-16 R/B,2000-006B,2026-07-13T10:01:42.142368,14.15838417,.0017125,71.0002,193.4702,342.4252,17.6277,0,U,26070,999,36635,-.77539E-4,-.201E-5,0
TITAN 4B R/B,2000-047B,2026-07-13T11:38:14.774208,15.10328439,.004587,67.9872,46.5428,260.4595,99.1369,0,U,26474,999,41190,.87218E-4,.1326E-4,0
ENVISAT,2002-009A,2026-07-13T11:18:17.284032,14.39070531,.0001341,98.3846,145.2052,83.8219,24.8831,0,U,27386,999,27726,.20054E-4,.19E-6,0
IDEFIX & ARIANE 42P R/B,2002-021B,2026-07-13T10:02:23.877888,14.31093299,.0011786,98.5943,131.6177,171.6602,188.4779,0,U,27422,999,26200,.49999E-4,.88E-6,0
AQUA,2002-022A,2026-07-13T11:28:08.284224,14.62195610,.0000886,98.4294,164.2891,109.8746,359.2727,0,U,27424,999,28711,.84157E-4,.374E-5,0
CZ-4B R/B,2002-024C,2026-07-12T23:38:00.394656,14.14567965,.00505755,98.8688,246.6356,28.2172,21.4970,0,U,27432,999,24695,.28071361E-4,.1E-6,0
MIDORI II (ADEOS-II),2002-056A,2026-07-13T11:00:17.428320,14.29362567,.0001552,98.7894,153.9439,42.9556,317.1746,0,U,27597,999,22826,.56521E-4,.99E-6,0
H-2A R/B,2002-056E,2026-07-13T11:16:23.692224,14.33833338,.00708,98.3328,150.1882,146.0159,326.1306,0,U,27601,999,23213,.54823E-4,.116E-5,0
CZ-4B R/B,2003-049C,2026-07-13T11:58:27.624576,14.55115425,.0047537,98.6908,194.3943,206.4811,153.3956,0,U,28059,999,20489,.44003E-4,.141E-5,0
CZ-2C R/B,2004-012C,2026-07-13T03:52:27.184800,15.84778211,.00114684,97.7067,272.9570,197.3679,162.7199,0,U,28222,999,22400,.42891622E-3,.100274E-2,0
SL-16 R/B,2004-021B,2026-07-13T11:11:13.668288,14.14616257,.0006371,71.0026,328.5367,226.4042,133.6552,0,U,28353,999,14062,.38955E-4,.27E-6,0
CZ-4B R/B,2004-035C,2026-07-13T02:00:08.135136,15.30974783,.00291142,97.3359,226.8692,240.5375,119.2961,0,U,28415,999,19908,.15716059E-3,.4684E-4,0
CZ-2C R/B,2004-046B,2026-07-13T08:17:02.673312,14.27032755,.0140021,98.1919,101.4880,142.8352,218.2623,0,U,28480,999,12642,.32865E-4,.49E-6,0
ARIANE 5 R/B,2004-049H,2026-07-13T11:13:29.966016,14.85477864,.0082713,98.2739,7.7397,303.9645,55.3727,0,U,28499,999,16446,.37476E-4,.277E-5,0
CZ-2D R/B,2005-024B,2026-07-13T00:22:39.380448,15.72551891,.00020368,97.3471,214.7884,197.1497,162.9698,0,U,28738,999,15939,.40847992E-3,.54658E-3,0
ALOS (DAICHI),2006-002A,2026-07-13T10:21:20.649600,14.70099841,.0000812,98.1337,149.9197,95.8759,264.2539,0,U,28931,999,9195,.89263E-4,.487E-5,0
H-2A R/B,2006-002B,2026-07-13T11:35:55.494816,15.18428233,.00507,98.2585,352.7015,171.8030,188.4042,0,U,28932,999,11351,.21757E-3,.4546E-4,0
RESURS-DK 1,2006-021A,2026-07-13T11:25:05.327040,15.13315670,.0006997,69.9309,271.4979,272.9641,87.0724,0,U,29228,999,10655,.60636E-4,.974E-5,0
